STARLINK-30446          
1 57872U 23144J   26068.56180636 -.00000786  00000+0 -19036-4 0  9995
2 57872  43.0018 271.7939 0001795 273.4287  86.6360 15.27587322137518
BANDWAGON-4 OBJECT N    
1 66305U 25248N   26068.03100984  .00024115  00000+0  97341-3 0  9997
2 66305  45.4084 294.9612 0013521 206.7837 153.2354 15.24369076 17177
